{"type": "FeatureCollection", "features": [{"type": "Feature", "properties": {"norad_id": 28890, "name": "BEIJING 1", "group": "dmc", "lat": -43.86515438512279, "lon": -67.61294206702536, "alt_km": 691.147762606799, "timestamp": "2025-12-18T21:31:50.649046+00:00", "meta": {"OBJECT_NAME": "BEIJING 1", "OBJECT_ID": "2005-043A", "EPOCH": "2025-12-18T07:22:54.721056", "MEAN_MOTION": 14.63371399, "ECCENTRICITY": 0.00155561, "INCLINATION": 98.2648, "RA_OF_ASC_NODE": 119.8272, "ARG_OF_PERICENTER": 124.763, "MEAN_ANOMALY": 235.5038, "EPHEMERIS_TYPE": 0, "CLASSIFICATION_TYPE": "U", "NORAD_CAT_ID": 28890, "ELEMENT_SET_NO": 999, "REV_AT_EPOCH": 7419, "BSTAR": 7.0780557e-05, "MEAN_MOTION_DOT": 3.17e-06, "MEAN_MOTION_DDOT": 0}, "tle": {"line1": "1 28890U 05043A   25352.30757779  .00000317  00000+0  70781-4 0  9998", "line2": "2 28890  98.2648 119.8272 0015556 124.7630 235.5038 14.63371399 74194"}}, "geometry": {"type": "Point", "coordinates": [-67.61294206702536, -43.86515438512279]}}, {"type": "Feature", "properties": {"norad_id": 33320, "name": "HUANJING 1A (HJ-1A)", "group": "dmc", "lat": -25.277346154796604, "lon": -15.420439847739514, "alt_km": 613.6248565196811, "timestamp": "2025-12-18T21:31:50.649072+00:00", "meta": {"OBJECT_NAME": "HUANJING 1A (HJ-1A)", "OBJECT_ID": "2008-041A", "EPOCH": "2025-12-18T07:04:30.689760", "MEAN_MOTION": 14.83412047, "ECCENTRICITY": 0.00198321, "INCLINATION": 97.6536, "RA_OF_ASC_NODE": 340.3617, "ARG_OF_PERICENTER": 16.8384, "MEAN_ANOMALY": 343.3484, "EPHEMERIS_TYPE": 0, "CLASSIFICATION_TYPE": "U", "NORAD_CAT_ID": 33320, "ELEMENT_SET_NO": 999, "REV_AT_EPOCH": 93158, "BSTAR": 0.00013597618, "MEAN_MOTION_DOT": 1.068e-05, "MEAN_MOTION_DDOT": 0}, "tle": {"line1": "1 33320U 08041A   25352.29479965  .00001068  00000+0  13598-3 0  9995", "line2": "2 33320  97.6536 340.3617 0019832  16.8384 343.3484 14.83412047931585"}}, "geometry": {"type": "Point", "coordinates": [-15.420439847739514, -25.277346154796604]}}, {"type": "Feature", "properties": {"norad_id": 33321, "name": "HUANJING 1B (HJ-1B)", "group": "dmc", "lat": -3.5324449683652337, "lon": 164.1450578606268, "alt_km": 639.9918368518493, "timestamp": "2025-12-18T21:31:50.649087+00:00", "meta": {"OBJECT_NAME": "HUANJING 1B (HJ-1B)", "OBJECT_ID": "2008-041B", "EPOCH": "2025-12-18T06:08:00.999168", "MEAN_MOTION": 14.82834207, "ECCENTRICITY": 0.00380838, "INCLINATION": 97.6396, "RA_OF_ASC_NODE": 344.0067, "ARG_OF_PERICENTER": 58.1646, "MEAN_ANOMALY": 302.3267, "EPHEMERIS_TYPE": 0, "CLASSIFICATION_TYPE": "U", "NORAD_CAT_ID": 33321, "ELEMENT_SET_NO": 999, "REV_AT_EPOCH": 93159, "BSTAR": 8.7988988e-05, "MEAN_MOTION_DOT": 6.69e-06, "MEAN_MOTION_DDOT": 0}, "tle": {"line1": "1 33321U 08041B   25352.25556712  .00000669  00000+0  87989-4 0  9990", "line2": "2 33321  97.6396 344.0067 0038083  58.1646 302.3267 14.82834207931599"}}, "geometry": {"type": "Point", "coordinates": [164.1450578606268, -3.5324449683652337]}}, {"type": "Feature", "properties": {"norad_id": 33446, "name": "YAOGAN-4", "group": "dmc", "lat": 81.85125018116425, "lon": 179.36218861317417, "alt_km": 621.3759253134867, "timestamp": "2025-12-18T21:31:50.649099+00:00", "meta": {"OBJECT_NAME": "YAOGAN-4", "OBJECT_ID": "2008-061A", "EPOCH": "2025-12-18T06:32:26.388096", "MEAN_MOTION": 14.82698569, "ECCENTRICITY": 0.00132388, "INCLINATION": 97.9188, "RA_OF_ASC_NODE": 282.3175, "ARG_OF_PERICENTER": 303.9504, "MEAN_ANOMALY": 56.0451, "EPHEMERIS_TYPE": 0, "CLASSIFICATION_TYPE": "U", "NORAD_CAT_ID": 33446, "ELEMENT_SET_NO": 999, "REV_AT_EPOCH": 91885, "BSTAR": 0.0001445107, "MEAN_MOTION_DOT": 1.114e-05, "MEAN_MOTION_DDOT": 0}, "tle": {"line1": "1 33446U 08061A   25352.27252764  .00001114  00000+0  14451-3 0  9991", "line2": "2 33446  97.9188 282.3175 0013238 303.9504  56.0451 14.82698569918853"}}, "geometry": {"type": "Point", "coordinates": [179.36218861317417, 81.85125018116425]}}, {"type": "Feature", "properties": {"norad_id": 35681, "name": "DEIMOS-1", "group": "dmc", "lat": 49.63055234867088, "lon": 144.03832076257382, "alt_km": 639.0118642162752, "timestamp": "2025-12-18T21:31:50.649110+00:00", "meta": {"OBJECT_NAME": "DEIMOS-1", "OBJECT_ID": "2009-041A", "EPOCH": "2025-12-18T06:39:01.414080", "MEAN_MOTION": 14.74960066, "ECCENTRICITY": 0.00026555, "INCLINATION": 97.7142, "RA_OF_ASC_NODE": 152.6219, "ARG_OF_PERICENTER": 70.9033, "MEAN_ANOMALY": 289.2464, "EPHEMERIS_TYPE": 0, "CLASSIFICATION_TYPE": "U", "NORAD_CAT_ID": 35681, "ELEMENT_SET_NO": 999, "REV_AT_EPOCH": 88021, "BSTAR": 5.595024e-05, "MEAN_MOTION_DOT": 3.29e-06, "MEAN_MOTION_DDOT": 0}, "tle": {"line1": "1 35681U 09041A   25352.27709970  .00000329  00000+0  55950-4 0  9996", "line2": "2 35681  97.7142 152.6219 0002655  70.9033 289.2464 14.74960066880218"}}, "geometry": {"type": "Point", "coordinates": [144.03832076257382, 49.63055234867088]}}, {"type": "Feature", "properties": {"norad_id": 35683, "name": "UK-DMC 2", "group": "dmc", "lat": 77.54839311165789, "lon": 88.92339579012925, "alt_km": 634.8442820860346, "timestamp": "2025-12-18T21:31:50.649122+00:00", "meta": {"OBJECT_NAME": "UK-DMC 2", "OBJECT_ID": "2009-041C", "EPOCH": "2025-12-18T08:08:56.167008", "MEAN_MOTION": 14.75633298, "ECCENTRICITY": 0.00014845, "INCLINATION": 97.8556, "RA_OF_ASC_NODE": 127.0835, "ARG_OF_PERICENTER": 93.9776, "MEAN_ANOMALY": 266.1603, "EPHEMERIS_TYPE": 0, "CLASSIFICATION_TYPE": "U", "NORAD_CAT_ID": 35683, "ELEMENT_SET_NO": 999, "REV_AT_EPOCH": 87989, "BSTAR": 0.00011271453, "MEAN_MOTION_DOT": 7.2e-06, "MEAN_MOTION_DDOT": 0}, "tle": {"line1": "1 35683U 09041C   25352.33953897  .00000720  00000+0  11271-3 0  9996", "line2": "2 35683  97.8556 127.0835 0001484  93.9776 266.1603 14.75633298879894"}}, "geometry": {"type": "Point", "coordinates": [88.92339579012925, 77.54839311165789]}}, {"type": "Feature", "properties": {"norad_id": 40715, "name": "DMC3-FM1", "group": "dmc", "lat": -13.45091627385679, "lon": -138.28824004458863, "alt_km": 614.7720540055607, "timestamp": "2025-12-18T21:31:50.649132+00:00", "meta": {"OBJECT_NAME": "DMC3-FM1", "OBJECT_ID": "2015-032A", "EPOCH": "2025-12-18T07:02:29.963904", "MEAN_MOTION": 14.85448714, "ECCENTRICITY": 0.0004333, "INCLINATION": 97.6694, "RA_OF_ASC_NODE": 219.2833, "ARG_OF_PERICENTER": 300.1001, "MEAN_ANOMALY": 59.9785, "EPHEMERIS_TYPE": 0, "CLASSIFICATION_TYPE": "U", "NORAD_CAT_ID": 40715, "ELEMENT_SET_NO": 999, "REV_AT_EPOCH": 56305, "BSTAR": 2.8845309e-05, "MEAN_MOTION_DOT": 1.97e-06, "MEAN_MOTION_DDOT": 0}, "tle": {"line1": "1 40715U 15032A   25352.29340236  .00000197  00000+0  28845-4 0  9991", "line2": "2 40715  97.6694 219.2833 0004333 300.1001  59.9785 14.85448714563054"}}, "geometry": {"type": "Point", "coordinates": [-138.28824004458863, -13.45091627385679]}}, {"type": "Feature", "properties": {"norad_id": 40716, "name": "DMC3-FM2", "group": "dmc", "lat": -45.80888189688413, "lon": 33.339354545475004, "alt_km": 618.1753460321679, "timestamp": "2025-12-18T21:31:50.649143+00:00", "meta": {"OBJECT_NAME": "DMC3-FM2", "OBJECT_ID": "2015-032B", "EPOCH": "2025-12-18T05:57:53.149248", "MEAN_MOTION": 14.85449166, "ECCENTRICITY": 0.00049526, "INCLINATION": 97.6751, "RA_OF_ASC_NODE": 220.6877, "ARG_OF_PERICENTER": 305.3169, "MEAN_ANOMALY": 54.7583, "EPHEMERIS_TYPE": 0, "CLASSIFICATION_TYPE": "U", "NORAD_CAT_ID": 40716, "ELEMENT_SET_NO": 999, "REV_AT_EPOCH": 56304, "BSTAR": 3.5377966e-05, "MEAN_MOTION_DOT": 2.53e-06, "MEAN_MOTION_DDOT": 0}, "tle": {"line1": "1 40716U 15032B   25352.24853182  .00000253  00000+0  35378-4 0  9998", "line2": "2 40716  97.6751 220.6877 0004952 305.3169  54.7583 14.85449166563042"}}, "geometry": {"type": "Point", "coordinates": [33.339354545475004, -45.80888189688413]}}, {"type": "Feature", "properties": {"norad_id": 40717, "name": "DMC3-FM3", "group": "dmc", "lat": 68.13159478146282, "lon": 62.598043125873886, "alt_km": 608.461759255787, "timestamp": "2025-12-18T21:31:50.649154+00:00", "meta": {"OBJECT_NAME": "DMC3-FM3", "OBJECT_ID": "2015-032C", "EPOCH": "2025-12-18T06:29:05.388000", "MEAN_MOTION": 14.85438231, "ECCENTRICITY": 0.00042377, "INCLINATION": 97.6806, "RA_OF_ASC_NODE": 222.3454, "ARG_OF_PERICENTER": 306.8573, "MEAN_ANOMALY": 53.2254, "EPHEMERIS_TYPE": 0, "CLASSIFICATION_TYPE": "U", "NORAD_CAT_ID": 40717, "ELEMENT_SET_NO": 999, "REV_AT_EPOCH": 56305, "BSTAR": 8.6922264e-05, "MEAN_MOTION_DOT": 6.98e-06, "MEAN_MOTION_DDOT": 0}, "tle": {"line1": "1 40717U 15032C   25352.27020125  .00000698  00000+0  86922-4 0  9999", "line2": "2 40717  97.6806 222.3454 0004237 306.8573  53.2254 14.85438231563056"}}, "geometry": {"type": "Point", "coordinates": [62.598043125873886, 68.13159478146282]}}]}